     2              NAVIGATION DATA                         RINEX VERSION / TYPE
CCRINEXN V1.6.0 UX  CDDIS               30-JUL-15 17:31     PGM / RUN BY / DATE 
IGS BROADCAST EPHEMERIS FILE                                COMMENT             
    0.7451D-08  0.1490D-07 -0.5960D-07 -0.1192D-06          ION ALPHA           
    0.9216D+05  0.1311D+06 -0.6554D+05 -0.5243D+06          ION BETA            
   -0.558793544769D-08-0.106581410364D-13   405504     1855 DELTA-UTC: A0,A1,T,W
    17                                                      LEAP SECONDS        
                                                            END OF HEADER       
15 15  7 29 12  0  0.0-0.263125170022D-03-0.204636307899D-11 0.000000000000D+00
    0.380000000000D+02-0.294062500000D+02 0.527486257634D-08-0.112102325466D+01
   -0.157766044140D-05 0.725937529933D-02 0.864081084728D-05 0.515367990303D+04
    0.302400000000D+06 0.143423676491D-06-0.101675002934D+01-0.134110450745D-06
    0.932548160031D+00 0.192218750000D+03 0.391897013455D+00-0.832034657583D-08
   -0.508592613495D-09 0.000000000000D+00 0.185500000000D+04 0.000000000000D+00
    0.200000000000D+01 0.000000000000D+00-0.107102096081D-07 0.380000000000D+02
    0.295200000000D+06 0.400000000000D+01 0.000000000000D+00 0.000000000000D+00
16 15  7 29 12  0  0.0-0.103336758912D-03 0.409272615798D-11 0.000000000000D+00
    0.290000000000D+02 0.224375000000D+02 0.428589281035D-08 0.530392995306D+00
    0.128522515297D-05 0.810462527443D-02 0.903382897377D-06 0.515359321594D+04
    0.302400000000D+06 0.651925802231D-07 0.119321626060D+01 0.484287738800D-07
    0.990255106843D+00 0.372500000000D+03 0.324277973033D+00-0.832248952224D-08
   -0.942896418278D-10 0.100000000000D+01 0.185500000000D+04 0.000000000000D+00
    0.200000000000D+01 0.000000000000D+00-0.102445483208D-07 0.290000000000D+02
    0.295218000000D+06 0.400000000000D+01 0.000000000000D+00 0.000000000000D+00
17 15  7 29 12  0  0.0-0.182055402547D-03-0.147792889038D-11 0.000000000000D+00
    0.113000000000D+03-0.142218750000D+03 0.427696367211D-08-0.471782358646D+00
   -0.737421214580D-05 0.102685029851D-01 0.733695924282D-05 0.515355530357D+04
    0.302400000000D+06-0.260770320892D-07 0.221942421186D+01 0.126659870148D-06
    0.973143449159D+00 0.245093750000D+03-0.201130242440D+01-0.825284374173D-08
   -0.417874540526D-09 0.100000000000D+01 0.185500000000D+04 0.000000000000D+00
    0.800000000000D+01 0.000000000000D+00-0.107102096081D-07 0.113000000000D+03
    0.295200000000D+06 0.000000000000D+00 0.000000000000D+00 0.000000000000D+00
18 15  7 29 12  0  0.0 0.421133358031D-03 0.306954461848D-11 0.000000000000D+00
    0.300000000000D+02 0.149687500000D+02 0.581952812099D-08 0.110695590317D+01
    0.704079866409D-06 0.163633357733D-01 0.509619712830D-05 0.515360997963D+04
    0.302400000000D+06-0.301748514175D-06-0.203689628737D+01 0.149011611938D-07
    0.924737960785D+00 0.264093750000D+03-0.194491572129D+01-0.892822903943D-08
    0.202865593023D-09 0.000000000000D+00 0.185500000000D+04 0.000000000000D+00
    0.200000000000D+01 0.000000000000D+00-0.111758708954D-07 0.300000000000D+02
    0.295320000000D+06 0.400000000000D+01 0.000000000000D+00 0.000000000000D+00
19 15  7 29 12  0  0.0-0.517062842846D-03-0.909494701773D-12 0.000000000000D+00
    0.116000000000D+03-0.120750000000D+03 0.415981613018D-08-0.128322065550D+01
   -0.633299350738D-05 0.115952516207D-01 0.758655369282D-05 0.515375450134D+04
    0.302400000000D+06 0.255182385445D-06 0.226882754934D+01-0.987201929092D-07
    0.970256964034D+00 0.237187500000D+03 0.589215518094D+00-0.789354308347D-08
   -0.332513850537D-09 0.100000000000D+01 0.185500000000D+04 0.000000000000D+00
    0.280000000000D+01 0.000000000000D+00-0.149011611938D-07 0.116000000000D+03
    0.295218000000D+06 0.400000000000D+01 0.000000000000D+00 0.000000000000D+00
21 15  7 29 12  0  0.0-0.467687845230D-03-0.306954461848D-11 0.000000000000D+00
    0.920000000000D+02-0.352187500000D+02 0.466448000860D-08 0.214188703305D+01
   -0.207312405109D-05 0.225022098748D-01 0.112242996693D-04 0.515378970909D+04
    0.302400000000D+06 0.197440385819D-06-0.307976546091D+01-0.486150383949D-06
    0.934767017621D+00 0.145437500000D+03-0.189084288389D+01-0.775353725166D-08
    0.440732643998D-09 0.000000000000D+00 0.185500000000D+04 0.000000000000D+00
    0.280000000000D+01 0.000000000000D+00-0.116415321827D-07 0.920000000000D+02
    0.295200000000D+06 0.400000000000D+01 0.000000000000D+00 0.000000000000D+00
22 15  7 29 12  0  0.0 0.375946518034D-03 0.363797880709D-11 0.000000000000D+00
    0.450000000000D+02 0.150625000000D+02 0.581738517459D-08 0.635025523545D+00
    0.782310962677D-06 0.804042839445D-02 0.492297112942D-05 0.515367659760D+04
    0.302400000000D+06-0.124797224999D-06-0.203584059156D+01 0.316649675369D-07
    0.922558704387D+00 0.265062500000D+03-0.203861889682D+01-0.880750972527D-08
    0.215366113720D-09 0.000000000000D+00 0.185500000000D+04 0.000000000000D+00
    0.200000000000D+01 0.000000000000D+00-0.176951289177D-07 0.450000000000D+02
    0.300960000000D+06 0.400000000000D+01 0.000000000000D+00 0.000000000000D+00
23 15  7 29 12  0  0.0-0.123933423310D-03-0.227373675443D-11 0.000000000000D+00
    0.130000000000D+02-0.105000000000D+02 0.486484549748D-08-0.159257067159D+01
   -0.845640897751D-06 0.104437076952D-01 0.886432826519D-05 0.515358099556D+04
    0.302400000000D+06 0.149011611938D-06-0.963577373711D+00-0.726431608200D-07
    0.947755816668D+00 0.196875000000D+03-0.264635095525D+01-0.802176271004D-08
   -0.351086052715D-09 0.100000000000D+01 0.185500000000D+04 0.000000000000D+00
    0.200000000000D+01 0.000000000000D+00-0.200234353542D-07 0.130000000000D+02
    0.295218000000D+06 0.400000000000D+01 0.000000000000D+00 0.000000000000D+00
24 15  7 29 12  0  0.0-0.210711732507D-05-0.568434188608D-12 0.000000000000D+00
    0.710000000000D+02 0.123218750000D+03 0.453233164695D-08-0.232085381701D+01
    0.626780092716D-05 0.328585121315D-02 0.105127692223D-04 0.515367066002D+04
    0.302400000000D+06 0.149011611938D-07 0.628006403102D-01-0.121071934700D-06
    0.953193306156D+00 0.173031250000D+03 0.338070538772D+00-0.799176146037D-08
    0.145363197818D-09 0.000000000000D+00 0.185500000000D+04 0.000000000000D+00
    0.280000000000D+01 0.000000000000D+00 0.232830643654D-08 0.710000000000D+02
    0.295200000000D+06 0.400000000000D+01 0.000000000000D+00 0.000000000000D+00
25 15  7 29 12  0  0.0-0.187982805073D-04-0.466116034659D-11 0.000000000000D+00
    0.170000000000D+02 0.505312500000D+02 0.454697511405D-08 0.189365124480D+01
    0.249594449997D-05 0.465688144322D-02 0.114925205708D-05 0.515364631462D+04
    0.302400000000D+06-0.134110450745D-06 0.112714060022D+01 0.409781932831D-07
    0.978210504383D+00 0.366187500000D+03 0.758967620996D+00-0.833284709653D-08
    0.975040614355D-10 0.000000000000D+00 0.185500000000D+04 0.000000000000D+00
    0.200000000000D+01 0.000000000000D+00 0.512227416039D-08 0.170000000000D+02
    0.297540000000D+06 0.400000000000D+01 0.000000000000D+00 0.000000000000D+00
26 15  7 29 12  0  0.0-0.165128149092D-04-0.682121026330D-11 0.000000000000D+00
    0.550000000000D+02 0.397187500000D+02 0.495056335369D-08 0.716995929301D-01
    0.224262475967D-05 0.286140828393D-03 0.871717929840D-06 0.515361038971D+04
    0.302400000000D+06 0.111758708954D-06 0.112346418614D+01-0.670552253723D-07
    0.960312041080D+00 0.359062500000D+03 0.127033388475D+01-0.862214486123D-08
    0.192865176466D-10 0.100000000000D+01 0.185500000000D+04 0.000000000000D+00
    0.200000000000D+01 0.000000000000D+00 0.745058059692D-08 0.550000000000D+02
    0.295218000000D+06 0.400000000000D+01 0.000000000000D+00 0.000000000000D+00
27 15  7 29 12  0  0.0 0.787479802966D-05 0.284217094304D-11 0.000000000000D+00
    0.780000000000D+02-0.124531250000D+03 0.430553648573D-08-0.451601326208D+00
   -0.666640698910D-05 0.259360473137D-02 0.674650073051D-05 0.515369958115D+04
    0.302400000000D+06 0.465661287308D-07 0.217126427136D+01 0.484287738800D-07
    0.968016917539D+00 0.253312500000D+03 0.306103591678D+00-0.808997983728D-08
   -0.442161274935D-09 0.100000000000D+01 0.185500000000D+04 0.000000000000D+00
    0.200000000000D+01 0.000000000000D+00 0.139698386192D-08 0.780000000000D+02
    0.301110000000D+06 0.400000000000D+01 0.000000000000D+00 0.000000000000D+00
28 15  7 29 12  0  0.0 0.456898007542D-03 0.261479726760D-11 0.000000000000D+00
    0.890000000000D+02 0.227500000000D+02 0.445732852277D-08 0.404579360423D+00
    0.128895044327D-05 0.195684116334D-01 0.136345624924D-05 0.515369504356D+04
    0.302400000000D+06-0.251457095146D-06 0.119850425742D+01-0.279396772385D-07
    0.988880840136D+00 0.372593750000D+03-0.165997879580D+01-0.872857786602D-08
   -0.810748056625D-10 0.000000000000D+00 0.185500000000D+04 0.000000000000D+00
    0.280000000000D+01 0.000000000000D+00-0.111758708954D-07 0.890000000000D+02
    0.295200000000D+06 0.400000000000D+01 0.000000000000D+00 0.000000000000D+00
29 15  7 29 12  0  0.0 0.625130720437D-03 0.216004991671D-11 0.000000000000D+00
    0.200000000000D+02-0.130062500000D+03 0.412517182996D-08 0.206184769818D+01
   -0.675022602081D-05 0.102320744190D-02 0.671111047268D-05 0.515372752190D+04
    0.302400000000D+06-0.447034835815D-07 0.222884399257D+01 0.558793544769D-08
    0.974018271245D+00 0.257468750000D+03-0.477668592403D+00-0.790997233924D-08
   -0.376087094109D-09 0.000000000000D+00 0.185500000000D+04 0.000000000000D+00
    0.200000000000D+01 0.000000000000D+00-0.102445483208D-07 0.200000000000D+02
    0.295200000000D+06 0.400000000000D+01 0.000000000000D+00 0.000000000000D+00
